#dV2023  2 17 22  0  0.00000000    1682       CTS   FIT  GFZ
## 2249 511200.00000000    30.00000000 59992 0.9166666666667
+    1   L64  0  0  0  0  0  0  0  0  0  0  0  0  0  0  0  0
+          0  0  0  0  0  0  0  0  0  0  0  0  0  0  0  0  0
+          0  0  0  0  0  0  0  0  0  0  0  0  0  0  0  0  0
+          0  0  0  0  0  0  0  0  0  0  0  0  0  0  0  0  0
+          0  0  0  0  0  0  0  0  0  0  0  0  0  0  0  0  0
++         0  0  0  0  0  0  0  0  0  0  0  0  0  0  0  0  0
++         0  0  0  0  0  0  0  0  0  0  0  0  0  0  0  0  0
++         0  0  0  0  0  0  0  0  0  0  0  0  0  0  0  0  0
++         0  0  0  0  0  0  0  0  0  0  0  0  0  0  0  0  0
++         0  0  0  0  0  0  0  0  0  0  0  0  0  0  0  0  0
%c L  cc GPS ccc cccc cccc cccc cccc ccccc ccccc ccccc ccccc
%c cc cc ccc ccc cccc cccc cccc cccc ccccc ccccc ccccc ccccc
%f  0.0000000  0.000000000  0.00000000000  0.000000000000000
%f  0.0000000  0.000000000  0.00000000000  0.000000000000000
%i    0    0    0    0      0      0      0      0         0
%i    0    0    0    0      0      0      0      0         0
/* CCCCCCCCCCCCCCCCCCCCCCCCCCCCCCCCCCCCCCCCCCCCCCCCCCCCCCCCCCCCCCCCCCCCCCCCCCCCC
/* C                             GFZ RSO-ORBIT                                 C
/* C DOI: https://doi.org/10.5880/GFZ_ORBIT/RSO/L64_G_v02                      C
/* C                                                                           C
/* C DORIS        RMS: not applicable                                          C
/* C GNSS-E Code  RMS: not applicable                                          C
/* C GNSS-E Phase RMS: not applicable                                          C
/* C GNSS-G Code  RMS:  49.479 [cm]   Obs.acc.:     14275 Obs.eli.:       946  C
/* C GNSS-G Phase RMS:   4.482 [mm]   Obs.acc.:     14275 Obs.eli.:       946  C
/* C SLR          RMS:   5.585 [cm]   Obs.acc.:        85 Obs.eli.:         0  C
/* C                                                                           C
/* CCCCCCCCCCCCCCCCCCCCCCCCCCCCCCCCCCCCCCCCCCCCCCCCCCCCCCCCCCCCCCCCCCCCCCCCCCCCC
*  2023  2 18  2 15  0.00000000
PL64   -997.548529     53.796218  -6813.145763    918.864475
VL64 -74916.359426  -4431.342110  10877.370205 999999.999999
*  2023  2 18  2 15 30.00000000
PL64  -1221.742616     40.966182  -6776.787113    919.326039
VL64 -74532.589027  -4121.519338  13359.516611 999999.999999
*  2023  2 18  2 16  0.00000000
PL64  -1444.661621     29.069726  -6733.003278    919.787357
VL64 -74066.378734  -3809.072863  15827.049412 999999.999999
*  2023  2 18  2 16 30.00000000
PL64  -1666.058930     18.113670  -6681.842085    920.247819
VL64 -73518.213357  -3494.701653  18277.314199 999999.999999
*  2023  2 18  2 17  0.00000000
PL64  -1885.689516      8.102741  -6623.359298    920.707941
VL64 -72888.665665  -3179.104591  20707.673900 999999.999999
*  2023  2 18  2 17 30.00000000
PL64  -2103.310198     -0.960430  -6557.618564    921.168051
VL64 -72178.395023  -2862.979699  23115.511535 999999.999999
*  2023  2 18  2 18  0.00000000
PL64  -2318.679905     -9.075305  -6484.691347    921.628055
VL64 -71388.146734  -2547.022922  25498.232062 999999.999999
*  2023  2 18  2 18 30.00000000
PL64  -2531.559929    -16.243428  -6404.656860    922.087334
VL64 -70518.751698  -2231.926336  27853.264956 999999.999999
*  2023  2 18  2 19  0.00000000
PL64  -2741.714181    -22.468410  -6317.601990    922.546639
VL64 -69571.125018  -1918.376723  30178.066322 999999.999999
*  2023  2 18  2 19 30.00000000
PL64  -2948.909444    -27.755916  -6223.621212    923.006851
VL64 -68546.265813  -1607.054528  32470.119490 999999.999999
*  2023  2 18  2 20  0.00000000
PL64  -3152.915626    -32.113638  -6122.816509    923.467338
VL64 -67445.259084  -1298.633026  34726.937341 999999.999999
*  2023  2 18  2 20 30.00000000
PL64  -3353.506019    -35.551280  -6015.297277    923.927392
VL64 -66269.275842   -993.777456  36946.067507 999999.999999
*  2023  2 18  2 21  0.00000000
PL64  -3550.457556    -38.080525  -5901.180207    924.387307
VL64 -65019.570201   -693.143814  39125.096581 999999.999999
*  2023  2 18  2 21 30.00000000
PL64  -3743.551050    -39.715011  -5780.589172    924.847146
VL64 -63697.476546   -397.377776  41261.651768 999999.999999
*  2023  2 18  2 22  0.00000000
PL64  -3932.571438    -40.470295  -5653.655103    925.307096
VL64 -62304.408193   -107.113937  43353.401951 999999.999999
*  2023  2 18  2 22 30.00000000
PL64  -4117.308013    -40.363820  -5520.515855    925.767548
VL64 -60841.856916    177.025004  45398.059435 999999.999999
*  2023  2 18  2 23  0.00000000
PL64  -4297.554663    -39.414880  -5381.316082    926.228110
VL64 -59311.392269    454.429158  47393.382567 999999.999999
*  2023  2 18  2 23 30.00000000
PL64  -4473.110097    -37.644576  -5236.207089    926.688559
VL64 -57714.660285    724.502458  49337.178098 999999.999999
*  2023  2 18  2 24  0.00000000
PL64  -4643.778077    -35.075778  -5085.346685    927.148933
VL64 -56053.382828    986.663564  51227.303224 999999.999999
*  2023  2 18  2 24 30.00000000
PL64  -4809.367643    -31.733073  -4928.899031    927.609048
VL64 -54329.356442   1240.346875  53061.669084 999999.999999
*  2023  2 18  2 25  0.00000000
PL64  -4969.693332    -27.642723  -4767.034465    928.068933
VL64 -52544.449216   1485.004044  54838.242904 999999.999999
*  2023  2 18  2 25 30.00000000
PL64  -5124.575394    -22.832606  -4599.929343    928.528959
VL64 -50700.600574   1720.105275  56555.048635 999999.999999
*  2023  2 18  2 26  0.00000000
PL64  -5273.840003    -17.332159  -4427.765858    928.989357
VL64 -48799.821455   1945.140184  58210.171536 999999.999999
*  2023  2 18  2 26 30.00000000
PL64  -5417.319469    -11.172322  -4250.731848    929.449961
VL64 -46844.190061   2159.618482  59801.762442 999999.999999
*  2023  2 18  2 27  0.00000000
PL64  -5554.852431     -4.385475  -4069.020600    929.910169
VL64 -44835.848051   2363.070410  61328.039236 999999.999999
*  2023  2 18  2 27 30.00000000
PL64  -5686.284047      2.994624  -3882.830643    930.370355
VL64 -42776.997773   2555.046737  62787.288290 999999.999999
*  2023  2 18  2 28  0.00000000
PL64  -5811.466169     10.932901  -3692.365545    930.830562
VL64 -40669.900951   2735.118815  64177.864624 999999.999999
*  2023  2 18  2 28 30.00000000
PL64  -5930.257525     19.393026  -3497.833705    931.290470
VL64 -38516.879050   2902.880004  65498.193725 999999.999999
*  2023  2 18  2 29  0.00000000
PL64  -6042.523895     28.337486  -3299.448133    931.750785
VL64 -36320.311137   3057.947717  66746.775290 999999.999999
*  2023  2 18  2 29 30.00000000
PL64  -6148.138277     37.727660  -3097.426227    932.210690
VL64 -34082.630101   3199.964572  67922.185945 999999.999999
*  2023  2 18  2 30  0.00000000
PL64  -6246.981045     47.523890  -2891.989535    932.670026
VL64 -31806.319312   3328.598747  69023.081107 999999.999999
*  2023  2 18  2 30 30.00000000
PL64  -6338.940093     57.685563  -2683.363523    933.130117
VL64 -29493.909732   3443.544248  70048.196396 999999.999999
*  2023  2 18  2 31  0.00000000
PL64  -6423.910979     68.171187  -2471.777323    933.590879
VL64 -27147.977290   3544.521360  70996.349004 999999.999999
*  2023  2 18  2 31 30.00000000
PL64  -6501.797051     78.938469  -2257.463494    934.051290
VL64 -24771.140222   3631.276874  71866.439307 999999.999999
*  2023  2 18  2 32  0.00000000
PL64  -6572.509572     89.944398  -2040.657767    934.511495
VL64 -22366.056676   3703.584012  72657.452384 999999.999999
*  2023  2 18  2 32 30.00000000
PL64  -6635.967839    101.145324  -1821.598788    934.971682
VL64 -19935.422848   3761.242868  73368.459900 999999.999999
*  2023  2 18  2 33  0.00000000
PL64  -6692.099289    112.497034  -1600.527855    935.432304
VL64 -17481.970132   3804.081333  73998.622955 999999.999999
*  2023  2 18  2 33 30.00000000
PL64  -6740.839602    123.954846  -1377.688645    935.893811
VL64 -15008.460440   3831.955637  74547.194597 999999.999999
*  2023  2 18  2 34  0.00000000
PL64  -6782.132782    135.473688  -1153.326936    936.355076
VL64 -12517.680892   3844.750863  75013.520948 999999.999999
*  2023  2 18  2 34 30.00000000
PL64  -6815.931225    147.008186   -927.690329    936.815902
VL64 -10012.438996   3842.381325  75397.040492 999999.999999
*  2023  2 18  2 35  0.00000000
PL64  -6842.195778    158.512754   -701.027973    937.276396
VL64  -7495.560107   3824.790340  75697.282773 999999.999999
*  2023  2 18  2 35 30.00000000
PL64  -6860.895789    169.941678   -473.590292    937.736763
VL64  -4969.885858   3791.950308  75913.868845 999999.999999
*  2023  2 18  2 36  0.00000000
PL64  -6872.009153    181.249207   -245.628706    938.197112
VL64  -2438.271621   3743.863211  76046.512542 999999.999999
*  2023  2 18  2 36 30.00000000
PL64  -6875.522345    192.389641    -17.395354    938.657342
VL64     96.416544   3680.560745  76095.021658 999999.999999
*  2023  2 18  2 37  0.00000000
PL64  -6871.430453    203.317417    210.857190    939.117255
VL64   2631.305415   3602.104195  76059.299120 999999.999999
*  2023  2 18  2 37 30.00000000
PL64  -6859.737188    213.987202    438.876205    939.576435
VL64   5163.518578   3508.584307  75939.343801 999999.999999
*  2023  2 18  2 38  0.00000000
PL64  -6840.454893    224.353978    666.409111    940.035831
VL64   7690.180605   3400.121089  75735.250671 999999.999999
*  2023  2 18  2 38 30.00000000
PL64  -6813.604527    234.373133    893.203758    940.495135
VL64  10208.420717   3276.863580  75447.210279 999999.999999
*  2023  2 18  2 39  0.00000000
PL64  -6779.215654    244.000543   1119.008709    940.955004
VL64  12715.375820   3138.989632  75075.508542 999999.999999
*  2023  2 18  2 39 30.00000000
PL64  -6737.326409    253.192660   1343.573527    941.415003
VL64  15208.193901   2986.705652  74620.527062 999999.999999
*  2023  2 18  2 40  0.00000000
PL64  -6687.983465    261.906600   1566.649065    941.874932
VL64  17684.038184   2820.246517  74082.743011 999999.999999
EOF
